QIANFAN-73              
1 63159U 25046A   26005.60221722  .00000216  00000+0  31558-3 0  9999
2 63159  88.9784 317.5547 0016901  57.4576 302.8205 13.50985154 50638
QIANFAN-74              
1 63160U 25046B   26005.58564369  .00000238  00000+0  34968-3 0  9997
2 63160  88.9784 317.4452 0001970  70.6824 289.4540 13.50982149 50696
QIANFAN-75              
1 63161U 25046C   26005.57285901  .00000252  00000+0  37183-3 0  9997
2 63161  88.9785 317.6805 0018097  59.8973 300.3970 13.50988408 50564
QIANFAN-76              
1 63162U 25046D   26005.49544770  .00000235  00000+0  34559-3 0  9996
2 63162  88.9784 317.6690 0015660  60.9082 299.3635 13.50987489 50566
QIANFAN-77              
1 63163U 25046E   26005.55270704  .00000642  00000+0  45762-3 0  9997
2 63163  88.9785 315.4749 0015763  14.1723 345.9892 13.96112570 51774
QIANFAN-78              
1 63164U 25046F   26005.61041504  .00000238  00000+0  34901-3 0  9993
2 63164  88.9784 317.5209 0017048  62.4383 297.8497 13.50986131 50658
QIANFAN-79              
1 63165U 25046G   26005.56498100  .00000252  00000+0  37186-3 0  9990
2 63165  88.9788 317.6340 0016739  61.0659 299.2168 13.50987970 50593
QIANFAN-80              
1 63166U 25046H   26005.58153671  .00000247  00000+0  36318-3 0  9994
2 63166  88.9785 317.3386 0015723  64.8547 295.4233 13.50986019 50759
